<?xml version="1.0" encoding="UTF-8"?>
<gpx version="1.1" creator="Evening Run">
  <trk>
    <name>Evening Run</name>
    <trkseg>
      <trkpt lat="51.5074" lon="-0.1278"><ele>11</ele></trkpt>
      <trkpt lat="51.5080" lon="-0.1265"><ele>12</ele></trkpt>
      <trkpt lat="51.5089" lon="-0.1251"><ele>13</ele></trkpt>
      <trkpt lat="51.5099" lon="-0.1240"><ele>14</ele></trkpt>
      <trkpt lat="51.5110" lon="-0.1232"><ele>15</ele></trkpt>
      <trkpt lat="51.5121" lon="-0.1228"><ele>16</ele></trkpt>
      <trkpt lat="51.5132" lon="-0.1230"><ele>15</ele></trkpt>
      <trkpt lat="51.5141" lon="-0.1238"><ele>14</ele></trkpt>
      <trkpt lat="51.5148" lon="-0.1250"><ele>13</ele></trkpt>
      <trkpt lat="51.5152" lon="-0.1264"><ele>12</ele></trkpt>
      <trkpt lat="51.5153" lon="-0.1279"><ele>11</ele></trkpt>
      <trkpt lat="51.5150" lon="-0.1294"><ele>12</ele></trkpt>
      <trkpt lat="51.5143" lon="-0.1307"><ele>13</ele></trkpt>
      <trkpt lat="51.5133" lon="-0.1317"><ele>14</ele></trkpt>
      <trkpt lat="51.5122" lon="-0.1322"><ele>15</ele></trkpt>
      <trkpt lat="51.5111" lon="-0.1320"><ele>14</ele></trkpt>
      <trkpt lat="51.5100" lon="-0.1313"><ele>13</ele></trkpt>
      <trkpt lat="51.5090" lon="-0.1303"><ele>12</ele></trkpt>
      <trkpt lat="51.5081" lon="-0.1291"><ele>11</ele></trkpt>
      <trkpt lat="51.5074" lon="-0.1278"><ele>11</ele></trkpt>
    </trkseg>
  </trk>
</gpx>
